[
  {
    "type": "way",
    "id": 37861419,
    "nodes": [
      949239973,
      914226400,
      444202862,
      914226398,
      914226395,
      949239984,
      444202859,
      914226394,
      2893392382,
      2893392385,
      914226393,
      949155837,
      911575218,
      444202852,
      444202838,
      444202829,
      444202823,
      444202820,
      444202808,
      444202804,
      444202801,
      444202797,
      444202794,
      444202791,
      2893392399
    ],
    "tags": {
      "branch": "В-СИБ",
      "electrified": "contact_line",
      "frequency": "50",
      "gauge": "1520",
      "int_name": "Trans-Siberian Railway",
      "name": "Транссибирская магистраль",
      "name:de": "Transsibirische Eisenbahn",
      "name:en": "Trans-Siberian Railway",
      "name:ru": "Транссибирская магистраль",
      "oneway": "yes",
      "operator": "ОАО \"РЖД\"",
      "passenger_lines": "2",
      "railway": "rail",
      "usage": "main",
      "voltage": "25000"
    }
  },
  {
    "type": "way",
    "id": 80367162,
    "nodes": [
      942792700,
      1498787111,
      1498787113,
      1498787114,
      1498787116,
      1498787117,
      10109732390,
      1498787118,
      1498787119,
      1498787120,
      1498787121,
      1498787122,
      1498787124,
      1498787125,
      1498787126,
      1498787127,
      1498787128,
      1498787129,
      1498787131,
      1498787132,
      1498787133,
      1498787134,
      1498787135,
      1498787136,
      1498787138,
      1498787139,
      1498787141,
      1498787142,
      10109732389,
      1498787143,
      1498787144,
      1498787145,
      1498787146,
      1498787147,
      1498787149,
      1498787150,
      1668228699,
      1668228700,
      1668228702,
      1668228704,
      1668228705,
      1668228707,
      1668228708,
      1668228710,
      1668228712,
      1668228714,
      1786102208,
      1668228715,
      1668228716,
      1668228718,
      1668228720,
      1668228721,
      1668228722,
      1668228726,
      1668228729,
      1668228731,
      1668228733,
      1668228737,
      1668228738,
      1668228744
    ],
    "tags": {
      "branch": "В-СИБ",
      "electrified": "contact_line",
      "frequency": "50",
      "gauge": "1520",
      "int_name": "Trans-Siberian Railway",
      "name": "Транссибирская магистраль",
      "name:de": "Transsibirische Eisenbahn",
      "name:en": "Trans-Siberian Railway",
      "name:ru": "Транссибирская магистраль",
      "oneway": "yes",
      "operator": "ОАО \"РЖД\"",
      "passenger_lines": "2",
      "railway": "rail",
      "source": "landsat",
      "usage": "main",
      "voltage": "25000"
    }
  },
  {
    "type": "way",
    "id": 80874819,
    "nodes": [
      942792641,
      942792645,
      942792650,
      942792654,
      2893267716,
      942792655,
      942792656
    ],
    "tags": {
      "branch": "В-СИБ",
      "electrified": "contact_line",
      "frequency": "50",
      "gauge": "1520",
      "int_name": "Trans-Siberian Railway",
      "name": "Транссибирская магистраль",
      "name:de": "Transsibirische Eisenbahn",
      "name:en": "Trans-Siberian Railway",
      "name:ru": "Транссибирская магистраль",
      "oneway": "yes",
      "operator": "ОАО \"РЖД\"",
      "passenger_lines": "2",
      "railway": "rail",
      "source": "landsat",
      "usage": "main",
      "voltage": "25000"
    }
  },
  {
    "type": "way",
    "id": 80874822,
    "nodes": [
      942792687,
      942792685,
      942792680
    ],
    "tags": {
      "branch": "В-СИБ",
      "electrified": "contact_line",
      "frequency": "50",
      "gauge": "1520",
      "int_name": "Trans-Siberian Railway",
      "name": "Транссибирская магистраль",
      "name:de": "Transsibirische Eisenbahn",
      "name:en": "Trans-Siberian Railway",
      "name:ru": "Транссибирская магистраль",
      "oneway": "yes",
      "operator": "ОАО \"РЖД\"",
      "passenger_lines": "2",
      "railway": "rail",
      "usage": "main",
      "voltage": "25000"
    }
  },
  {
    "type": "way",
    "id": 80874828,
    "nodes": [
      942792656,
      942792700
    ],
    "tags": {
      "branch": "В-СИБ",
      "bridge": "yes",
      "electrified": "contact_line",
      "frequency": "50",
      "gauge": "1520",
      "int_name": "Trans-Siberian Railway",
      "layer": "1",
      "name": "Транссибирская магистраль",
      "name:de": "Transsibirische Eisenbahn",
      "name:en": "Trans-Siberian Railway",
      "name:ru": "Транссибирская магистраль",
      "oneway": "yes",
      "operator": "ОАО \"РЖД\"",
      "passenger_lines": "2",
      "railway": "rail",
      "source": "landsat",
      "usage": "main",
      "voltage": "25000"
    }
  },
  {
    "type": "way",
    "id": 80874829,
    "nodes": [
      942792707,
      942792687
    ],
    "tags": {
      "branch": "В-СИБ",
      "bridge": "yes",
      "electrified": "contact_line",
      "frequency": "50",
      "gauge": "1520",
      "int_name": "Trans-Siberian Railway",
      "layer": "1",
      "name": "Транссибирская магистраль",
      "name:de": "Transsibirische Eisenbahn",
      "name:en": "Trans-Siberian Railway",
      "name:ru": "Транссибирская магистраль",
      "oneway": "yes",
      "operator": "ОАО \"РЖД\"",
      "passenger_lines": "2",
      "railway": "rail",
      "usage": "main",
      "voltage": "25000"
    }
  },
  {
    "type": "way",
    "id": 80874838,
    "nodes": [
      1668228743,
      1498787103,
      1498787102,
      1498787101,
      1498787100,
      1498787099,
      1668228719,
      1668228717,
      1498787098,
      1786102206,
      1668228713,
      1668228711,
      1668228709,
      1498787097,
      1668228706,
      1498787096,
      1668228701,
      1498787095,
      1668228698,
      1668228697,
      1498787094,
      942792779,
      942792778,
      3198249585,
      942792774,
      942792768,
      942792767,
      942792761,
      942792760,
      942792759,
      942792757,
      942792754,
      942792751,
      942792750,
      942792747,
      942792745,
      942792743,
      942792742,
      942792739,
      942792736,
      942792735,
      942792734,
      942792733,
      942792732,
      942792730,
      942792725,
      942792723,
      942792720,
      942792719,
      942792718,
      942792717,
      942792716,
      942792713,
      942792707
    ],
    "tags": {
      "branch": "В-СИБ",
      "electrified": "contact_line",
      "frequency": "50",
      "gauge": "1520",
      "int_name": "Trans-Siberian Railway",
      "name": "Транссибирская магистраль",
      "name:de": "Transsibirische Eisenbahn",
      "name:en": "Trans-Siberian Railway",
      "name:ru": "Транссибирская магистраль",
      "oneway": "yes",
      "operator": "ОАО \"РЖД\"",
      "passenger_lines": "2",
      "railway": "rail",
      "usage": "main",
      "voltage": "25000"
    }
  },
  {
    "type": "way",
    "id": 132809148,
    "nodes": [
      1484595799,
      2023120583,
      1484595518,
      4111513085,
      1484595643,
      1484596012,
      1484595882,
      1484595721,
      1484580499,
      1484580478,
      1484580486,
      1484580439,
      1484580483,
      1484580494,
      1484580489,
      1484580495,
      1484580492,
      1484580476,
      1484580207,
      1484580378,
      1484580281,
      1484580268,
      1484580216,
      1484580258,
      1484580280,
      1484580244,
      1484580411,
      1484580440,
      2893392826,
      1484580376,
      1484580398,
      1484580327,
      1484580389,
      1484580467,
      1484580237,
      1484580210,
      1484580374,
      1484580464,
      1484580254,
      1484580360,
      1484580340,
      1484580262,
      1461132542
    ],
    "tags": {
      "branch": "В-СИБ",
      "electrified": "contact_line",
      "frequency": "50",
      "gauge": "1520",
      "int_name": "Trans-Siberian Railway",
      "name": "Транссибирская магистраль",
      "name:de": "Transsibirische Eisenbahn",
      "name:en": "Trans-Siberian Railway",
      "name:ru": "Транссибирская магистраль",
      "oneway": "yes",
      "operator": "ОАО \"РЖД\"",
      "passenger_lines": "2",
      "railway": "rail",
      "usage": "main",
      "voltage": "25000"
    }
  },
  {
    "type": "way",
    "id": 135158712,
    "nodes": [
      242793238,
      1484595760
    ],
    "tags": {
      "branch": "В-СИБ",
      "bridge": "viaduct",
      "electrified": "contact_line",
      "frequency": "50",
      "gauge": "1520",
      "int_name": "Trans-Siberian Railway",
      "layer": "1",
      "name": "Транссибирская магистраль",
      "name:de": "Transsibirische Eisenbahn",
      "name:en": "Trans-Siberian Railway",
      "name:ru": "Транссибирская магистраль",
      "oneway": "yes",
      "operator": "ОАО \"РЖД\"",
      "passenger_lines": "2",
      "railway": "rail",
      "usage": "main",
      "voltage": "25000"
    }
  },
  {
    "type": "way",
    "id": 135158723,
    "nodes": [
      1484595642,
      1484595799
    ],
    "tags": {
      "branch": "В-СИБ",
      "bridge": "viaduct",
      "electrified": "contact_line",
      "frequency": "50",
      "gauge": "1520",
      "int_name": "Trans-Siberian Railway",
      "layer": "1",
      "name": "Транссибирская магистраль",
      "name:de": "Transsibirische Eisenbahn",
      "name:en": "Trans-Siberian Railway",
      "name:ru": "Транссибирская магистраль",
      "oneway": "yes",
      "operator": "ОАО \"РЖД\"",
      "passenger_lines": "2",
      "railway": "rail",
      "usage": "main",
      "voltage": "25000"
    }
  },
  {
    "type": "way",
    "id": 135158734,
    "nodes": [
      1484595760,
      2893392823,
      937861418,
      937861389,
      937861307,
      937861428,
      1500956373,
      1500956358,
      937861336,
      937861316,
      1500956324,
      937861364,
      937861342
    ],
    "tags": {
      "branch": "В-СИБ",
      "electrified": "contact_line",
      "frequency": "50",
      "gauge": "1520",
      "int_name": "Trans-Siberian Railway",
      "name": "Транссибирская магистраль",
      "name:de": "Transsibirische Eisenbahn",
      "name:en": "Trans-Siberian Railway",
      "name:ru": "Транссибирская магистраль",
      "oneway": "yes",
      "operator": "ОАО \"РЖД\"",
      "passenger_lines": "2",
      "railway": "rail",
      "usage": "main",
      "voltage": "25000"
    }
  },
  {
    "type": "way",
    "id": 136813227,
    "nodes": [
      1500955971,
      1500955948,
      1500955927,
      1500955923,
      1500955914,
      1500955896,
      1500960951
    ],
    "tags": {
      "branch": "В-СИБ",
      "electrified": "contact_line",
      "frequency": "50",
      "gauge": "1520",
      "int_name": "Trans-Siberian Railway",
      "name": "Транссибирская магистраль",
      "name:de": "Transsibirische Eisenbahn",
      "name:en": "Trans-Siberian Railway",
      "name:ru": "Транссибирская магистраль",
      "operator": "ОАО \"РЖД\"",
      "passenger_lines": "2",
      "railway": "rail",
      "source": "landsat",
      "usage": "main",
      "voltage": "25000"
    }
  },
  {
    "type": "way",
    "id": 154259001,
    "nodes": [
      286005491,
      1668228743
    ],
    "tags": {
      "branch": "В-СИБ",
      "bridge": "yes",
      "electrified": "contact_line",
      "frequency": "50",
      "gauge": "1520",
      "int_name": "Trans-Siberian Railway",
      "layer": "1",
      "name": "Транссибирская магистраль",
      "name:de": "Transsibirische Eisenbahn",
      "name:en": "Trans-Siberian Railway",
      "name:ru": "Транссибирская магистраль",
      "oneway": "yes",
      "operator": "ОАО \"РЖД\"",
      "passenger_lines": "2",
      "railway": "rail",
      "usage": "main",
      "voltage": "25000"
    }
  },
  {
    "type": "way",
    "id": 154259002,
    "nodes": [
      1668228744,
      1668228751
    ],
    "tags": {
      "branch": "В-СИБ",
      "bridge": "yes",
      "electrified": "contact_line",
      "frequency": "50",
      "gauge": "1520",
      "int_name": "Trans-Siberian Railway",
      "layer": "1",
      "name": "Транссибирская магистраль",
      "name:de": "Transsibirische Eisenbahn",
      "name:en": "Trans-Siberian Railway",
      "name:ru": "Транссибирская магистраль",
      "oneway": "yes",
      "operator": "ОАО \"РЖД\"",
      "passenger_lines": "2",
      "railway": "rail",
      "source": "landsat",
      "usage": "main",
      "voltage": "25000"
    }
  },
  {
    "type": "way",
    "id": 154259003,
    "nodes": [
      1668228751,
      1668228778,
      1668228795,
      1668228813,
      1668228820,
      1668228838,
      1668228875,
      1668228900,
      1668228913,
      1668228915,
      1668228911,
      1668228905,
      1668228903,
      1668228895,
      1668228887,
      1668228888,
      1668228912,
      1668228937,
      1668228961,
      1668228992,
      1668229010,
      1668229022,
      1668229036,
      1668229050,
      1668229067,
      1668229076,
      1668229081,
      1668229090,
      1668229094,
      1668229100,
      1668229107,
      1668229111,
      1668229117,
      1668229120,
      1668229124,
      1668229129,
      1668229132,
      1668229136,
      1668229141,
      1668229140,
      1668229139,
      1668229138,
      1668229137,
      1668229135,
      1668229134,
      1668229133,
      1668229131,
      1668229128,
      1668229126,
      1668229122,
      1668229121,
      1668229115,
      1668229112,
      2893392721,
      2893392720,
      2893392719,
      2893392718,
      2893392717,
      2893392716,
      2893392715,
      2893392714,
      2893392713,
      2893392712,
      2893392711,
      2893392710,
      2893392709,
      2893392708,
      2893392707,
      2893392706,
      2893392705,
      2893392704,
      2893392703,
      2893392702
    ],
    "tags": {
      "branch": "В-СИБ",
      "electrified": "contact_line",
      "frequency": "50",
      "gauge": "1520",
      "int_name": "Trans-Siberian Railway",
      "name": "Транссибирская магистраль",
      "name:de": "Transsibirische Eisenbahn",
      "name:en": "Trans-Siberian Railway",
      "name:ru": "Транссибирская магистраль",
      "oneway": "yes",
      "operator": "ОАО \"РЖД\"",
      "passenger_lines": "2",
      "railway": "rail",
      "source": "landsat",
      "usage": "main",
      "voltage": "25000"
    }
  },
  {
    "type": "way",
    "id": 159014599,
    "nodes": [
      937861342,
      937861399,
      937861327,
      937861377,
      937861353,
      1500956266,
      1500956246,
      937861417,
      1500956197,
      937861387,
      1500956155,
      937861349,
      1500956118,
      937861411,
      1500956078,
      937861383,
      937861303,
      937861422,
      1500955971
    ],
    "tags": {
      "branch": "В-СИБ",
      "electrified": "contact_line",
      "frequency": "50",
      "gauge": "1520",
      "int_name": "Trans-Siberian Railway",
      "name": "Транссибирская магистраль",
      "name:de": "Transsibirische Eisenbahn",
      "name:en": "Trans-Siberian Railway",
      "name:ru": "Транссибирская магистраль",
      "operator": "ОАО \"РЖД\"",
      "passenger_lines": "2",
      "railway": "rail",
      "usage": "main",
      "voltage": "25000"
    }
  },
  {
    "type": "way",
    "id": 285661728,
    "nodes": [
      942792680,
      942792675,
      942792672,
      2893267717,
      2893392722,
      942792671,
      942792875,
      2893392725,
      942792874,
      2893267719,
      942792870,
      942792868,
      942792867,
      2893267726,
      2893392731,
      2893392734,
      1500960887,
      1500960891,
      1500960893,
      1500960896,
      1500960901,
      1500960907,
      1500960916,
      1500960928,
      1500960940,
      1500960952
    ],
    "tags": {
      "branch": "В-СИБ",
      "electrified": "contact_line",
      "frequency": "50",
      "gauge": "1520",
      "int_name": "Trans-Siberian Railway",
      "name": "Транссибирская магистраль",
      "name:de": "Transsibirische Eisenbahn",
      "name:en": "Trans-Siberian Railway",
      "name:ru": "Транссибирская магистраль",
      "operator": "ОАО \"РЖД\"",
      "passenger_lines": "2",
      "railway": "rail",
      "usage": "main",
      "voltage": "25000"
    }
  },
  {
    "type": "way",
    "id": 285693104,
    "nodes": [
      1461112512,
      467381683,
      467386211,
      1484580388,
      1484580287,
      1461132324,
      1484580339,
      242792526,
      467386238,
      1484580471,
      1484580412,
      242792524,
      2893392825,
      1484580225,
      467418209,
      1484580505,
      242792521,
      1484596014,
      278809657,
      242092423,
      4111513086,
      2893392824,
      242092428,
      1484595817,
      2023120582,
      242793238
    ],
    "tags": {
      "branch": "В-СИБ",
      "electrified": "contact_line",
      "frequency": "50",
      "gauge": "1520",
      "int_name": "Trans-Siberian Railway",
      "name": "Транссибирская магистраль",
      "name:de": "Transsibirische Eisenbahn",
      "name:en": "Trans-Siberian Railway",
      "name:ru": "Транссибирская магистраль",
      "oneway": "yes",
      "operator": "ОАО \"РЖД\"",
      "passenger_lines": "2",
      "railway": "rail",
      "usage": "main",
      "voltage": "25000"
    }
  },
  {
    "type": "way",
    "id": 285693109,
    "nodes": [
      2893392702,
      2893392400
    ],
    "tags": {
      "branch": "В-СИБ",
      "bridge": "yes",
      "electrified": "contact_line",
      "frequency": "50",
      "gauge": "1520",
      "int_name": "Trans-Siberian Railway",
      "layer": "1",
      "name": "Транссибирская магистраль",
      "name:de": "Transsibirische Eisenbahn",
      "name:en": "Trans-Siberian Railway",
      "name:ru": "Транссибирская магистраль",
      "oneway": "yes",
      "operator": "ОАО \"РЖД\"",
      "passenger_lines": "2",
      "railway": "rail",
      "source": "landsat",
      "usage": "main",
      "voltage": "25000"
    }
  },
  {
    "type": "way",
    "id": 285693111,
    "nodes": [
      2893392399,
      2893392701
    ],
    "tags": {
      "branch": "В-СИБ",
      "bridge": "yes",
      "electrified": "contact_line",
      "frequency": "50",
      "gauge": "1520",
      "int_name": "Trans-Siberian Railway",
      "layer": "1",
      "name": "Транссибирская магистраль",
      "name:de": "Transsibirische Eisenbahn",
      "name:en": "Trans-Siberian Railway",
      "name:ru": "Транссибирская магистраль",
      "oneway": "yes",
      "operator": "ОАО \"РЖД\"",
      "passenger_lines": "2",
      "railway": "rail",
      "usage": "main",
      "voltage": "25000"
    }
  },
  {
    "type": "way",
    "id": 285693114,
    "nodes": [
      2893392400,
      2893392398,
      2893392397,
      2893392396,
      2893392395,
      2893392394,
      2893392393,
      2893392392,
      2893392391,
      2893392390,
      2893392389,
      2893392388,
      2893392377,
      949155973,
      2893392387,
      2893392386,
      2893392384,
      2893392381,
      2893392378,
      2893392379,
      2893392380,
      2893392383,
      949239979,
      949239989,
      949239972,
      949239976,
      949239956,
      949239964
    ],
    "tags": {
      "branch": "В-СИБ",
      "electrified": "contact_line",
      "frequency": "50",
      "gauge": "1520",
      "int_name": "Trans-Siberian Railway",
      "name": "Транссибирская магистраль",
      "name:de": "Transsibirische Eisenbahn",
      "name:en": "Trans-Siberian Railway",
      "name:ru": "Транссибирская магистраль",
      "oneway": "yes",
      "operator": "ОАО \"РЖД\"",
      "passenger_lines": "2",
      "railway": "rail",
      "source": "Yahoo",
      "usage": "main",
      "voltage": "25000"
    }
  },
  {
    "type": "way",
    "id": 285693117,
    "nodes": [
      2893392701,
      444202787,
      444202785,
      444202782,
      444202779,
      444202777,
      444202774,
      444202771,
      444202762,
      444202760,
      444202757,
      444202755,
      444202752,
      444202750,
      444202747,
      444202744,
      444202742,
      444202741,
      444202740,
      444202739,
      444202738,
      444202737,
      444202728,
      444202725,
      444202722,
      444202719,
      444202716,
      444202714,
      444202711,
      444202709,
      444202706,
      444202703,
      444202697,
      444202690,
      444202687,
      444202682,
      444202679,
      444202674,
      444202669,
      444202664,
      444202660,
      444202656,
      1668229106,
      444202654,
      444202653,
      444202652,
      444202651,
      1668229017,
      444202648,
      444202645,
      1668228935,
      444202642,
      1668228884,
      444202639,
      914226304,
      444202636,
      444202634,
      1668228894,
      444202631,
      444202628,
      444202625,
      444202616,
      444202613,
      444202610,
      444202607,
      444202605,
      444202604,
      444202600,
      286005491
    ],
    "tags": {
      "branch": "В-СИБ",
      "electrified": "contact_line",
      "frequency": "50",
      "gauge": "1520",
      "int_name": "Trans-Siberian Railway",
      "name": "Транссибирская магистраль",
      "name:de": "Transsibirische Eisenbahn",
      "name:en": "Trans-Siberian Railway",
      "name:ru": "Транссибирская магистраль",
      "oneway": "yes",
      "operator": "ОАО \"РЖД\"",
      "passenger_lines": "2",
      "railway": "rail",
      "usage": "main",
      "voltage": "25000"
    }
  },
  {
    "type": "way",
    "id": 285693125,
    "nodes": [
      1500956312,
      1500956316,
      1500956319,
      1500956332,
      1500956346,
      1500956351,
      1500956361,
      1500956380,
      1500956391,
      1500956398,
      1500956403,
      2893392822,
      1500956405,
      1484595600,
      1484595642
    ],
    "tags": {
      "branch": "В-СИБ",
      "electrified": "contact_line",
      "frequency": "50",
      "gauge": "1520",
      "int_name": "Trans-Siberian Railway",
      "name": "Транссибирская магистраль",
      "name:de": "Transsibirische Eisenbahn",
      "name:en": "Trans-Siberian Railway",
      "name:ru": "Транссибирская магистраль",
      "oneway": "yes",
      "operator": "ОАО \"РЖД\"",
      "passenger_lines": "2",
      "railway": "rail",
      "usage": "main",
      "voltage": "25000"
    }
  },
  {
    "type": "way",
    "id": 285693137,
    "nodes": [
      1500956001,
      1500956025,
      1500956042,
      1500956072,
      1500956077,
      1500956104,
      1500956120,
      1500956140,
      1500956156,
      1500956175,
      1500956201,
      1500956226,
      1500956248,
      1500956267,
      1500956292,
      1500956306,
      1500956311,
      1500956315,
      1500956314,
      1500956312
    ],
    "tags": {
      "branch": "В-СИБ",
      "electrified": "contact_line",
      "frequency": "50",
      "gauge": "1520",
      "int_name": "Trans-Siberian Railway",
      "name": "Транссибирская магистраль",
      "name:de": "Transsibirische Eisenbahn",
      "name:en": "Trans-Siberian Railway",
      "name:ru": "Транссибирская магистраль",
      "operator": "ОАО \"РЖД\"",
      "passenger_lines": "2",
      "railway": "rail",
      "usage": "main",
      "voltage": "25000"
    }
  },
  {
    "type": "way",
    "id": 313791320,
    "nodes": [
      1500960951,
      1500960938,
      1500960931,
      1500960925,
      1500960918,
      1500960911,
      1500960905,
      1500960900,
      942792838,
      2893392738,
      1500960888,
      942792840,
      2893392730,
      1500960879,
      942792843,
      942792844,
      942792845,
      942792848,
      2893392724,
      942792853,
      942792641
    ],
    "tags": {
      "branch": "В-СИБ",
      "electrified": "contact_line",
      "frequency": "50",
      "gauge": "1520",
      "int_name": "Trans-Siberian Railway",
      "name": "Транссибирская магистраль",
      "name:de": "Transsibirische Eisenbahn",
      "name:en": "Trans-Siberian Railway",
      "name:ru": "Транссибирская магистраль",
      "operator": "ОАО \"РЖД\"",
      "passenger_lines": "2",
      "railway": "rail",
      "source": "landsat",
      "usage": "main",
      "voltage": "25000"
    }
  },
  {
    "type": "way",
    "id": 322202829,
    "nodes": [
      1500960952,
      1500955909,
      1500955928,
      2893392776,
      2893392781,
      1500955991,
      1500956001
    ],
    "tags": {
      "branch": "В-СИБ",
      "electrified": "contact_line",
      "frequency": "50",
      "gauge": "1520",
      "int_name": "Trans-Siberian Railway",
      "name": "Транссибирская магистраль",
      "name:de": "Transsibirische Eisenbahn",
      "name:en": "Trans-Siberian Railway",
      "name:ru": "Транссибирская магистраль",
      "operator": "ОАО \"РЖД\"",
      "passenger_lines": "2",
      "railway": "rail",
      "usage": "main",
      "voltage": "25000"
    }
  }
]